{"type": "FeatureCollection", "features": [ {"type": "Feature", "properties": {"norad_id": 33867, "name": "IRIDIUM 33 DEB", "group": "iridium-33-debris", "lat": 76.47709960664261, "lon": 156.3414355183556, "alt_km": 365.7329797140537, "timestamp": "2025-12-09T16:56:36.959012+00:00", "meta": {"OBJECT_NAME": "IRIDIUM 33 DEB", "OBJECT_ID": "1997-051AL", "EPOCH": "2025-12-09T11:53:31.734816", "MEAN_MOTION": 15.61827995, "ECCENTRICITY": 0.0013164, "INCLINATION": 86.3636, "RA_OF_ASC_NODE": 351.7835, "ARG_OF_PERICENTER": 91.8218, "MEAN_ANOMALY": 268.4555, "EPHEMERIS_TYPE": 0, "CLASSIFICATION_TYPE": "U", "NORAD_CAT_ID": 33867, "ELEMENT_SET_NO": 999, "REV_AT_EPOCH": 89460, "BSTAR": 0.0081007, "MEAN_MOTION_DOT": 0.00770772, "MEAN_MOTION_DDOT": 0}, "tle": {"line1": "1 33867U 97051AL  25343.49550619  .00770772  00000+0  81007-2 0  9992", "line2": "2 33867  86.3636 351.7835 0013164  91.8218 268.4555 15.61827995894602"}}, "geometry": {"type": "Point", "coordinates": [156.3414355183556, 76.47709960664261]}}, {"type": "Feature", "properties": {"norad_id": 33870, "name": "IRIDIUM 33 DEB", "group": "iridium-33-debris", "lat": 25.337799168057742, "lon": 61.28137723021752, "alt_km": 752.9463696239645, "timestamp": "2025-12-09T16:56:36.959024+00:00", "meta": {"OBJECT_NAME": "IRIDIUM 33 DEB", "OBJECT_ID": "1997-051AP", "EPOCH": "2025-12-09T11:54:50.942016", "MEAN_MOTION": 14.45824551, "ECCENTRICITY": 0.002111, "INCLINATION": 86.3747, "RA_OF_ASC_NODE": 59.6509, "ARG_OF_PERICENTER": 188.7487, "MEAN_ANOMALY": 186.7606, "EPHEMERIS_TYPE": 0, "CLASSIFICATION_TYPE": "U", "NORAD_CAT_ID": 33870, "ELEMENT_SET_NO": 999, "REV_AT_EPOCH": 88090, "BSTAR": 0.0013296, "MEAN_MOTION_DOT": 4.75e-05, "MEAN_MOTION_DDOT": 0}, "tle": {"line1": "1 33870U 97051AP  25343.49642294  .00004750  00000+0  13296-2 0  9998", "line2": "2 33870  86.3747  59.6509 0021110 188.7487 186.7606 14.45824551880908"}}, "geometry": {"type": "Point", "coordinates": [61.28137723021752, 25.337799168057742]}}, {"type": "Feature", "properties": {"norad_id": 33881, "name": "IRIDIUM 33 DEB", "group": "iridium-33-debris", "lat": 43.09228776043359, "lon": -75.32818426533171, "alt_km": 671.6672514914499, "timestamp": "2025-12-09T16:56:36.959035+00:00", "meta": {"OBJECT_NAME": "IRIDIUM 33 DEB", "OBJECT_ID": "1997-051BA", "EPOCH": "2025-12-09T10:01:33.651840", "MEAN_MOTION": 14.56473135, "ECCENTRICITY": 0.006143, "INCLINATION": 86.3869, "RA_OF_ASC_NODE": 108.1859, "ARG_OF_PERICENTER": 185.4197, "MEAN_ANOMALY": 241.4978, "EPHEMERIS_TYPE": 0, "CLASSIFICATION_TYPE": "U", "NORAD_CAT_ID": 33881, "ELEMENT_SET_NO": 999, "REV_AT_EPOCH": 87452, "BSTAR": 0.0028428, "MEAN_MOTION_DOT": 0.00012995, "MEAN_MOTION_DDOT": 0}, "tle": {"line1": "1 33881U 97051BA  25343.41775060  .00012995  00000+0  28428-2 0  9993", "line2": "2 33881  86.3869 108.1859 0061430 185.4197 241.4978 14.56473135874526"}}, "geometry": {"type": "Point", "coordinates": [-75.32818426533171, 43.09228776043359]}}, {"type": "Feature", "properties": {"norad_id": 33884, "name": "IRIDIUM 33 DEB", "group": "iridium-33-debris", "lat": -36.42869055427096, "lon": -166.12663064873385, "alt_km": 647.6182107555878, "timestamp": "2025-12-09T16:56:36.959046+00:00", "meta": {"OBJECT_NAME": "IRIDIUM 33 DEB", "OBJECT_ID": "1997-051BD", "EPOCH": "2025-12-09T09:45:18.182016", "MEAN_MOTION": 14.77324813, "ECCENTRICITY": 0.0010071, "INCLINATION": 86.3695, "RA_OF_ASC_NODE": 11.3227, "ARG_OF_PERICENTER": 336.3653, "MEAN_ANOMALY": 88.215, "EPHEMERIS_TYPE": 0, "CLASSIFICATION_TYPE": "U", "NORAD_CAT_ID": 33884, "ELEMENT_SET_NO": 999, "REV_AT_EPOCH": 88798, "BSTAR": 0.0018287, "MEAN_MOTION_DOT": 0.00013029, "MEAN_MOTION_DDOT": 0}, "tle": {"line1": "1 33884U 97051BD  25343.40646044  .00013029  00000+0  18287-2 0  9995", "line2": "2 33884  86.3695  11.3227 0010071 336.3653  88.2150 14.77324813887983"}}, "geometry": {"type": "Point", "coordinates": [-166.12663064873385, -36.42869055427096]}}, {"type": "Feature", "properties": {"norad_id": 33886, "name": "IRIDIUM 33 DEB", "group": "iridium-33-debris", "lat": -52.856458988509274, "lon": -106.70455963314444, "alt_km": 770.529686157779, "timestamp": "2025-12-09T16:56:36.959060+00:00", "meta": {"OBJECT_NAME": "IRIDIUM 33 DEB", "OBJECT_ID": "1997-051BF", "EPOCH": "2025-12-09T12:34:01.371072", "MEAN_MOTION": 14.36046616, "ECCENTRICITY": 0.0012135, "INCLINATION": 86.3831, "RA_OF_ASC_NODE": 68.5823, "ARG_OF_PERICENTER": 254.1199, "MEAN_ANOMALY": 116.7155, "EPHEMERIS_TYPE": 0, "CLASSIFICATION_TYPE": "U", "NORAD_CAT_ID": 33886, "ELEMENT_SET_NO": 999, "REV_AT_EPOCH": 88006, "BSTAR": 0.0003732, "MEAN_MOTION_DOT": 1.105e-05, "MEAN_MOTION_DDOT": 0}, "tle": {"line1": "1 33886U 97051BF  25343.52362698  .00001105  00000+0  37320-3 0  9992", "line2": "2 33886  86.3831  68.5823 0012135 254.1199 116.7155 14.36046616880069"}}, "geometry": {"type": "Point", "coordinates": [-106.70455963314444, -52.856458988509274]}}, {"type": "Feature", "properties": {"norad_id": 33887, "name": "IRIDIUM 33 DEB", "group": "iridium-33-debris", "lat": 23.418891360618645, "lon": -176.9041085664349, "alt_km": 767.0088828848102, "timestamp": "2025-12-09T16:56:36.959071+00:00", "meta": {"OBJECT_NAME": "IRIDIUM 33 DEB", "OBJECT_ID": "1997-051BG", "EPOCH": "2025-12-09T07:58:22.365120", "MEAN_MOTION": 14.37216828, "ECCENTRICITY": 0.0004194, "INCLINATION": 86.3047, "RA_OF_ASC_NODE": 4.8609, "ARG_OF_PERICENTER": 242.0671, "MEAN_ANOMALY": 141.6982, "EPHEMERIS_TYPE": 0, "CLASSIFICATION_TYPE": "U", "NORAD_CAT_ID": 33887, "ELEMENT_SET_NO": 999, "REV_AT_EPOCH": 88116, "BSTAR": 0.00025793, "MEAN_MOTION_DOT": 7.87e-06, "MEAN_MOTION_DDOT": 0}, "tle": {"line1": "1 33887U 97051BG  25343.33220330  .00000787  00000+0  25793-3 0  9994", "line2": "2 33887  86.3047   4.8609 0004194 242.0671 141.6982 14.37216828881163"}}, "geometry": {"type": "Point", "coordinates": [-176.9041085664349, 23.418891360618645]}}, {"type": "Feature", "properties": {"norad_id": 33953, "name": "IRIDIUM 33 DEB", "group": "iridium-33-debris", "lat": 4.884935727601775, "lon": -125.213772545362, "alt_km": 704.9223100619638, "timestamp": "2025-12-09T16:56:36.959083+00:00", "meta": {"OBJECT_NAME": "IRIDIUM 33 DEB", "OBJECT_ID": "1997-051BN", "EPOCH": "2025-12-09T11:16:25.701024", "MEAN_MOTION": 14.55272572, "ECCENTRICITY": 0.001848, "INCLINATION": 86.384, "RA_OF_ASC_NODE": 55.1984, "ARG_OF_PERICENTER": 112.7861, "MEAN_ANOMALY": 265.1429, "EPHEMERIS_TYPE": 0, "CLASSIFICATION_TYPE": "U", "NORAD_CAT_ID": 33953, "ELEMENT_SET_NO": 999, "REV_AT_EPOCH": 88256, "BSTAR": 0.0018148, "MEAN_MOTION_DOT": 7.899e-05, "MEAN_MOTION_DDOT": 0}, "tle": {"line1": "1 33953U 97051BN  25343.46974191  .00007899  00000+0  18148-2 0  9999", "line2": "2 33953  86.3840  55.1984 0018480 112.7861 265.1429 14.55272572882561"}}, "geometry": {"type": "Point", "coordinates": [-125.213772545362, 4.884935727601775]}}, {"type": "Feature", "properties": {"norad_id": 33960, "name": "IRIDIUM 33 DEB", "group": "iridium-33-debris", "lat": 14.25618848399418, "lon": -68.10153327316998, "alt_km": 611.7209833103116, "timestamp": "2025-12-09T16:56:36.959094+00:00", "meta": {"OBJECT_NAME": "IRIDIUM 33 DEB", "OBJECT_ID": "1997-051BV", "EPOCH": "2025-12-09T07:42:37.372896", "MEAN_MOTION": 14.8489733, "ECCENTRICITY": 0.0007345, "INCLINATION": 86.2536, "RA_OF_ASC_NODE": 291.1258, "ARG_OF_PERICENTER": 67.4678, "MEAN_ANOMALY": 51.7843, "EPHEMERIS_TYPE": 0, "CLASSIFICATION_TYPE": "U", "NORAD_CAT_ID": 33960, "ELEMENT_SET_NO": 999, "REV_AT_EPOCH": 88816, "BSTAR": 0.0041557, "MEAN_MOTION_DOT": 0.00035526, "MEAN_MOTION_DDOT": 0}, "tle": {"line1": "1 33960U 97051BV  25343.32126589  .00035526  00000+0  41557-2 0  9990", "line2": "2 33960  86.2536 291.1258 0007345  67.4678  51.7843 14.84897330888164"}}, "geometry": {"type": "Point", "coordinates": [-68.10153327316998, 14.25618848399418]}}, {"type": "Feature", "properties": {"norad_id": 33966, "name": "IRIDIUM 33 DEB", "group": "iridium-33-debris", "lat": 3.0691175660296888, "lon": 47.52310072621456, "alt_km": 734.4909460895396, "timestamp": "2025-12-09T16:56:36.959105+00:00", "meta": {"OBJECT_NAME": "IRIDIUM 33 DEB", "OBJECT_ID": "1997-051CB", "EPOCH": "2025-12-09T05:36:29.443104", "MEAN_MOTION": 14.49572478, "ECCENTRICITY": 0.0006999, "INCLINATION": 86.3924, "RA_OF_ASC_NODE": 47.5319, "ARG_OF_PERICENTER": 200.2452, "MEAN_ANOMALY": 219.7781, "EPHEMERIS_TYPE": 0, "CLASSIFICATION_TYPE": "U", "NORAD_CAT_ID": 33966, "ELEMENT_SET_NO": 999, "REV_AT_EPOCH": 88391, "BSTAR": 0.00091318, "MEAN_MOTION_DOT": 3.524e-05, "MEAN_MOTION_DDOT": 0}, "tle": {"line1": "1 33966U 97051CB  25343.23367411  .00003524  00000+0  91318-3 0  9991", "line2": "2 33966  86.3924  47.5319 0006999 200.2452 219.7781 14.49572478883913"}}, "geometry": {"type": "Point", "coordinates": [47.52310072621456, 3.0691175660296888]}}, {"type": "Feature", "properties": {"norad_id": 34071, "name": "IRIDIUM 33 DEB", "group": "iridium-33-debris", "lat": 70.52489472485934, "lon": 29.558825037590154, "alt_km": 715.7654883805171, "timestamp": "2025-12-09T16:56:36.959116+00:00", "meta": {"OBJECT_NAME": "IRIDIUM 33 DEB", "OBJECT_ID": "1997-051CE", "EPOCH": "2025-12-09T11:38:50.523936", "MEAN_MOTION": 14.49443549, "ECCENTRICITY": 0.0009807, "INCLINATION": 86.3456, "RA_OF_ASC_NODE": 19.2427, "ARG_OF_PERICENTER": 116.2581, "MEAN_ANOMALY": 243.9632, "EPHEMERIS_TYPE": 0, "CLASSIFICATION_TYPE": "U", "NORAD_CAT_ID": 34071, "ELEMENT_SET_NO": 999, "REV_AT_EPOCH": 88287, "BSTAR": 0.00098998, "MEAN_MOTION_DOT": 3.809e-05, "MEAN_MOTION_DDOT": 0}, "tle": {"line1": "1 34071U 97051CE  25343.48530699  .00003809  00000+0  98998-3 0  9993", "line2": "2 34071  86.3456  19.2427 0009807 116.2581 243.9632 14.49443549882871"}}, "geometry": {"type": "Point", "coordinates": [29.558825037590154, 70.52489472485934]}}]}